{
  "type": "FeatureCollection",
  "features": [
    {
      "type": "Feature",
      "properties": {
        "norad_id": 33835,
        "name": "COSMOS 2251 DEB",
        "group": "cosmos-2251-debris",
        "lat": -73.38004522250203,
        "lon": 35.66012389157985,
        "alt_km": 706.9489861688025,
        "timestamp": "2025-12-08T15:42:50.188744+00:00",
        "meta_object_name": "COSMOS 2251 DEB",
        "meta_object_id": "1993-036CC",
        "meta_epoch": "2025-12-07T15:35:03.922944",
        "meta_mean_motion": 14.62162375,
        "meta_eccentricity": 0.00552099,
        "meta_inclination": 74.0576,
        "meta_ra_of_asc_node": 110.8449,
        "meta_arg_of_pericenter": 165.8116,
        "meta_mean_anomaly": 218.2895,
        "meta_ephemeris_type": 0,
        "meta_classification_type": "U",
        "meta_norad_cat_id": 33835,
        "meta_element_set_no": 999,
        "meta_rev_at_epoch": 88715,
        "meta_bstar": 0.0019235469,
        "meta_mean_motion_dot": 9.877e-05,
        "meta_mean_motion_ddot": 0,
        "tle_line1": "1 33835U 93036CC  25341.64935096  .00009877  00000+0  19235-2 0  9992",
        "tle_line2": "2 33835  74.0576 110.8449 0055209 165.8116 218.2895 14.62162375887150"
      },
      "geometry": {
        "type": "Point",
        "coordinates": [
          35.66012389157985,
          -73.38004522250203
        ]
      }
    },
    {
      "type": "Feature",
      "properties": {
        "norad_id": 33836,
        "name": "COSMOS 2251 DEB",
        "group": "cosmos-2251-debris",
        "lat": 40.676809716018866,
        "lon": -78.71055608784026,
        "alt_km": 624.3239393770236,
        "timestamp": "2025-12-08T15:42:50.188755+00:00",
        "meta_object_name": "COSMOS 2251 DEB",
        "meta_object_id": "1993-036CD",
        "meta_epoch": "2025-12-08T06:21:24.283296",
        "meta_mean_motion": 14.79484306,
        "meta_eccentricity": 0.00224793,
        "meta_inclination": 73.9976,
        "meta_ra_of_asc_node": 267.7793,
        "meta_arg_of_pericenter": 122.605,
        "meta_mean_anomaly": 4.7098,
        "meta_ephemeris_type": 0,
        "meta_classification_type": "U",
        "meta_norad_cat_id": 33836,
        "meta_element_set_no": 999,
        "meta_rev_at_epoch": 64022,
        "meta_bstar": 0.0016405992,
        "meta_mean_motion_dot": 0.00012302,
        "meta_mean_motion_ddot": 0,
        "tle_line1": "1 33836U 93036CD  25342.26486439  .00012302  00000+0  16406-2 0  9998",
        "tle_line2": "2 33836  73.9976 267.7793 0022479 122.6050   4.7098 14.79484306640225"
      },
      "geometry": {
        "type": "Point",
        "coordinates": [
          -78.71055608784026,
          40.676809716018866
        ]
      }
    },
    {
      "type": "Feature",
      "properties": {
        "norad_id": 33837,
        "name": "COSMOS 2251 DEB",
        "group": "cosmos-2251-debris",
        "lat": 73.56109262467108,
        "lon": 139.6088425088476,
        "alt_km": 739.9596317868964,
        "timestamp": "2025-12-08T15:42:50.188766+00:00",
        "meta_object_name": "COSMOS 2251 DEB",
        "meta_object_id": "1993-036CE",
        "meta_epoch": "2025-12-08T07:02:30.615360",
        "meta_mean_motion": 14.50687323,
        "meta_eccentricity": 0.00357919,
        "meta_inclination": 74.0132,
        "meta_ra_of_asc_node": 63.9688,
        "meta_arg_of_pericenter": 286.4178,
        "meta_mean_anomaly": 73.3049,
        "meta_ephemeris_type": 0,
        "meta_classification_type": "U",
        "meta_norad_cat_id": 33837,
        "meta_element_set_no": 999,
        "meta_rev_at_epoch": 88731,
        "meta_bstar": 0.00051789957,
        "meta_mean_motion_dot": 2.023e-05,
        "meta_mean_motion_ddot": 0,
        "tle_line1": "1 33837U 93036CE  25342.29340990  .00002023  00000+0  51790-3 0  9998",
        "tle_line2": "2 33837  74.0132  63.9688 0035791 286.4178  73.3049 14.50687323887316"
      },
      "geometry": {
        "type": "Point",
        "coordinates": [
          139.6088425088476,
          73.56109262467108
        ]
      }
    },
    {
      "type": "Feature",
      "properties": {
        "norad_id": 33838,
        "name": "COSMOS 2251 DEB",
        "group": "cosmos-2251-debris",
        "lat": -6.597012054706167,
        "lon": 155.56659103884374,
        "alt_km": 728.8834935112081,
        "timestamp": "2025-12-08T15:42:50.188779+00:00",
        "meta_object_name": "COSMOS 2251 DEB",
        "meta_object_id": "1993-036CF",
        "meta_epoch": "2025-12-08T06:35:52.204128",
        "meta_mean_motion": 14.48342688,
        "meta_eccentricity": 0.00274373,
        "meta_inclination": 74.0361,
        "meta_ra_of_asc_node": 158.1748,
        "meta_arg_of_pericenter": 280.6559,
        "meta_mean_anomaly": 252.6136,
        "meta_ephemeris_type": 0,
        "meta_classification_type": "U",
        "meta_norad_cat_id": 33838,
        "meta_element_set_no": 999,
        "meta_rev_at_epoch": 88504,
        "meta_bstar": 0.00067219254,
        "meta_mean_motion_dot": 2.499e-05,
        "meta_mean_motion_ddot": 0,
        "tle_line1": "1 33838U 93036CF  25342.27490977  .00002499  00000+0  67219-3 0  9998",
        "tle_line2": "2 33838  74.0361 158.1748 0027437 280.6559 252.6136 14.48342688885048"
      },
      "geometry": {
        "type": "Point",
        "coordinates": [
          155.56659103884374,
          -6.597012054706167
        ]
      }
    },
    {
      "type": "Feature",
      "properties": {
        "norad_id": 33839,
        "name": "COSMOS 2251 DEB",
        "group": "cosmos-2251-debris",
        "lat": 42.2493969596194,
        "lon": -130.60275367827379,
        "alt_km": 661.330002370777,
        "timestamp": "2025-12-08T15:42:50.188792+00:00",
        "meta_object_name": "COSMOS 2251 DEB",
        "meta_object_id": "1993-036CG",
        "meta_epoch": "2025-12-07T15:02:34.528128",
        "meta_mean_motion": 14.64399997,
        "meta_eccentricity": 0.00849554,
        "meta_inclination": 74.0392,
        "meta_ra_of_asc_node": 216.3042,
        "meta_arg_of_pericenter": 329.5835,
        "meta_mean_anomaly": 56.9141,
        "meta_ephemeris_type": 0,
        "meta_classification_type": "U",
        "meta_norad_cat_id": 33839,
        "meta_element_set_no": 999,
        "meta_rev_at_epoch": 89505,
        "meta_bstar": 0.00046688625,
        "meta_mean_motion_dot": 2.569e-05,
        "meta_mean_motion_ddot": 0,
        "tle_line1": "1 33839U 93036CG  25341.62678852  .00002569  00000+0  46689-3 0  9993",
        "tle_line2": "2 33839  74.0392 216.3042 0084955 329.5835  56.9141 14.64399997895051"
      },
      "geometry": {
        "type": "Point",
        "coordinates": [
          -130.60275367827379,
          42.2493969596194
        ]
      }
    },
    {
      "type": "Feature",
      "properties": {
        "norad_id": 33841,
        "name": "COSMOS 2251 DEB",
        "group": "cosmos-2251-debris",
        "lat": 14.900236588374682,
        "lon": 101.19545286842758,
        "alt_km": 779.5134971201587,
        "timestamp": "2025-12-08T15:42:50.188803+00:00",
        "meta_object_name": "COSMOS 2251 DEB",
        "meta_object_id": "1993-036CJ",
        "meta_epoch": "2025-12-08T05:29:59.499168",
        "meta_mean_motion": 14.37850574,
        "meta_eccentricity": 0.00203383,
        "meta_inclination": 74.0376,
        "meta_ra_of_asc_node": 286.3465,
        "meta_arg_of_pericenter": 7.7527,
        "meta_mean_anomaly": 114.475,
        "meta_ephemeris_type": 0,
        "meta_classification_type": "U",
        "meta_norad_cat_id": 33841,
        "meta_element_set_no": 999,
        "meta_rev_at_epoch": 88049,
        "meta_bstar": 0.0004837612,
        "meta_mean_motion_dot": 1.436e-05,
        "meta_mean_motion_ddot": 0,
        "tle_line1": "1 33841U 93036CJ  25342.22916087  .00001436  00000+0  48376-3 0  9995",
        "tle_line2": "2 33841  74.0376 286.3465 0020338   7.7527 114.4750 14.37850574880491"
      },
      "geometry": {
        "type": "Point",
        "coordinates": [
          101.19545286842758,
          14.900236588374682
        ]
      }
    },
    {
      "type": "Feature",
      "properties": {
        "norad_id": 33842,
        "name": "COSMOS 2251 DEB",
        "group": "cosmos-2251-debris",
        "lat": -11.560047361077249,
        "lon": -136.12313033707147,
        "alt_km": 720.8417814649456,
        "timestamp": "2025-12-08T15:42:50.188813+00:00",
        "meta_object_name": "COSMOS 2251 DEB",
        "meta_object_id": "1993-036CK",
        "meta_epoch": "2025-12-08T02:27:18.681984",
        "meta_mean_motion": 14.42682071,
        "meta_eccentricity": 0.00471563,
        "meta_inclination": 74.0334,
        "meta_ra_of_asc_node": 228.2591,
        "meta_arg_of_pericenter": 336.5073,
        "meta_mean_anomaly": 23.3928,
        "meta_ephemeris_type": 0,
        "meta_classification_type": "U",
        "meta_norad_cat_id": 33842,
        "meta_element_set_no": 999,
        "meta_rev_at_epoch": 88270,
        "meta_bstar": 0.00049884455,
        "meta_mean_motion_dot": 1.655e-05,
        "meta_mean_motion_ddot": 0,
        "tle_line1": "1 33842U 93036CK  25342.10229956  .00001655  00000+0  49884-3 0  9993",
        "tle_line2": "2 33842  74.0334 228.2591 0047156 336.5073  23.3928 14.42682071882709"
      },
      "geometry": {
        "type": "Point",
        "coordinates": [
          -136.12313033707147,
          -11.560047361077249
        ]
      }
    }
  ]
}